start=new Date('2021-09-24T00:00:00.000Z').valueOf();
sats=[{"EPOCH":"2021-09-24T00:00:02.000160","CLASSIFICATION_TYPE":"U","FILE":"3125337","SEMIMAJOR_AXIS":"6925.333","MEAN_MOTION":"15.06405226","CENTER_NAME":"EARTH","LAUNCH_DATE":"2021-02-16","PERIAPSIS":"545.851","ECCENTRICITY":"0.00019450","SITE":"AFETR","OBJECT_NAME":"STARLINK-2018","ARG_OF_PERICENTER":"70.2664","TLE_LINE2":"2 47640  53.0550 178.6052 0001945  70.2664  54.2157 15.06405226  3619","TIME_SYSTEM":"UTC","MEAN_ELEMENT_THEORY":"SGP4","TLE_LINE1":"1 47640U 21012W   21267.00002315 -.00020309  00000-0 -13482-2 0  9992","DECAY_DATE":null,"ELEMENT_SET_NO":"999","COUNTRY_CODE":"US","NORAD_CAT_ID":"47640","REF_FRAME":"TEME","PERIOD":"95.592","MEAN_ANOMALY":"54.2157","RA_OF_ASC_NODE":"178.6052","APOAPSIS":"548.545","EPHEMERIS_TYPE":"0","BSTAR":"-0.00134820000000","REV_AT_EPOCH":"361","OBJECT_TYPE":"PAYLOAD","INCLINATION":"53.0550","OBJECT_ID":"2021-012W","MEAN_MOTION_DDOT":"0.0000000000000","GP_ID":"185349056","MEAN_MOTION_DOT":"-0.00020309","RCS_SIZE":"LARGE"},{"NORAD_CAT_ID":"47641","REF_FRAME":"TEME","DECAY_DATE":null,"ELEMENT_SET_NO":"999","COUNTRY_CODE":"US","PERIOD":"91.988","RA_OF_ASC_NODE":"88.8429","MEAN_ANOMALY":"193.4866","EPHEMERIS_TYPE":"0","BSTAR":"-0.01198600000000","APOAPSIS":"372.878","REV_AT_EPOCH":"372","INCLINATION":"53.0423","OBJECT_TYPE":"PAYLOAD","GP_ID":"185349803","OBJECT_ID":"2021-012X","MEAN_MOTION_DDOT":"0.0000000000000","MEAN_MOTION_DOT":"-0.01107428","RCS_SIZE":"LARGE","FILE":"3125337","EPOCH":"2021-09-24T00:00:02.000160","CLASSIFICATION_TYPE":"U","MEAN_MOTION":"15.65419250","SEMIMAJOR_AXIS":"6750.170","LAUNCH_DATE":"2021-02-16","PERIAPSIS":"371.192","CENTER_NAME":"EARTH","SITE":"AFETR","ECCENTRICITY":"0.00012490","TLE_LINE2":"2 47641  53.0423  88.8429 0001249  65.7071 193.4866 15.65419250  3729","OBJECT_NAME":"STARLINK-2019","ARG_OF_PERICENTER":"65.7071","TIME_SYSTEM":"UTC","MEAN_ELEMENT_THEORY":"SGP4","TLE_LINE1":"1 47641U 21012X   21267.00002315 -.01107428  00000-0 -11986-1 0  9998"},{"REV_AT_EPOCH":"361","INCLINATION":"53.0536","OBJECT_TYPE":"PAYLOAD","GP_ID":"185350048","OBJECT_ID":"2021-012Y","MEAN_MOTION_DDOT":"0.0000000000000","RCS_SIZE":"LARGE","MEAN_MOTION_DOT":"-0.00019478","REF_FRAME":"TEME","NORAD_CAT_ID":"47642","COUNTRY_CODE":"US","ELEMENT_SET_NO":"999","DECAY_DATE":null,"PERIOD":"95.592","RA_OF_ASC_NODE":"173.5897","MEAN_ANOMALY":"46.1138","BSTAR":"-0.00129220000000","EPHEMERIS_TYPE":"0","APOAPSIS":"548.619","SITE":"AFETR","ECCENTRICITY":"0.00020320","TLE_LINE2":"2 47642  53.0536 173.5897 0002032  70.9843  46.1138 15.06400489  3615","ARG_OF_PERICENTER":"70.9843","OBJECT_NAME":"STARLINK-2020","TIME_SYSTEM":"UTC","MEAN_ELEMENT_THEORY":"SGP4","TLE_LINE1":"1 47642U 21012Y   21267.00002315 -.00019478  00000-0 -12922-2 0  9997","FILE":"3125337","CLASSIFICATION_TYPE":"U","EPOCH":"2021-09-24T00:00:02.000160","MEAN_MOTION":"15.06400489","SEMIMAJOR_AXIS":"6925.347","PERIAPSIS":"545.805","LAUNCH_DATE":"2021-02-16","CENTER_NAME":"EARTH"},{"RA_OF_ASC_NODE":"158.5941","MEAN_ANOMALY":"310.3083","EPHEMERIS_TYPE":"0","BSTAR":"-0.00057323000000","APOAPSIS":"548.757","NORAD_CAT_ID":"47643","REF_FRAME":"TEME","DECAY_DATE":null,"ELEMENT_SET_NO":"999","COUNTRY_CODE":"US","PERIOD":"95.592","GP_ID":"185350304","MEAN_MOTION_DDOT":"0.0000000000000","OBJECT_ID":"2021-012Z","MEAN_MOTION_DOT":"-0.00008809","RCS_SIZE":"LARGE","REV_AT_EPOCH":"361","INCLINATION":"53.0521","OBJECT_TYPE":"PAYLOAD","MEAN_MOTION":"15.06397244","SEMIMAJOR_AXIS":"6925.357","PERIAPSIS":"545.687","LAUNCH_DATE":"2021-02-16","CENTER_NAME":"EARTH","FILE":"3125337","EPOCH":"2021-09-24T00:00:02.000160","CLASSIFICATION_TYPE":"U","TIME_SYSTEM":"UTC","MEAN_ELEMENT_THEORY":"SGP4","TLE_LINE1":"1 47643U 21012Z   21267.00002315 -.00008809  00000-0 -57323-3 0  9999","SITE":"AFETR","ECCENTRICITY":"0.00022160","TLE_LINE2":"2 47643  53.0521 158.5941 0002216  64.1830 310.3083 15.06397244  3617","ARG_OF_PERICENTER":"64.1830","OBJECT_NAME":"STARLINK-2022"},{"PERIOD":"95.592","DECAY_DATE":null,"ELEMENT_SET_NO":"999","COUNTRY_CODE":"US","NORAD_CAT_ID":"47644","REF_FRAME":"TEME","APOAPSIS":"548.618","EPHEMERIS_TYPE":"0","BSTAR":"-0.00114040000000","MEAN_ANOMALY":"235.3915","RA_OF_ASC_NODE":"178.6089","OBJECT_TYPE":"PAYLOAD","INCLINATION":"53.0525","REV_AT_EPOCH":"357","MEAN_MOTION_DOT":"-0.00017228","RCS_SIZE":"LARGE","MEAN_MOTION_DDOT":"0.0000000000000","OBJECT_ID":"2021-012AA","GP_ID":"185349556","EPOCH":"2021-09-24T00:00:02.000160","CLASSIFICATION_TYPE":"U","FILE":"3125337","CENTER_NAME":"EARTH","PERIAPSIS":"545.806","LAUNCH_DATE":"2021-02-16","SEMIMAJOR_AXIS":"6925.347","MEAN_MOTION":"15.06400564","ARG_OF_PERICENTER":"69.0777","OBJECT_NAME":"STARLINK-2026","TLE_LINE2":"2 47644  53.0525 178.6089 0002030  69.0777 235.3915 15.06400564  3571","ECCENTRICITY":"0.00020300","SITE":"AFETR","TLE_LINE1":"1 47644U 21012AA  21267.00002315 -.00017228  00000-0 -11404-2 0  9994","MEAN_ELEMENT_THEORY":"SGP4","TIME_SYSTEM":"UTC"},{"TLE_LINE1":"1 47645U 21012AB  21267.00002315  .00006939  00000-0  48430-3 0  9990","MEAN_ELEMENT_THEORY":"SGP4","TIME_SYSTEM":"UTC","TLE_LINE2":"2 47645  53.0459 148.6233 0004630 255.5637  58.8433 15.06397572  3578","ARG_OF_PERICENTER":"255.5637","OBJECT_NAME":"STARLINK-2027","SITE":"AFETR","ECCENTRICITY":"0.00046300","PERIAPSIS":"544.015","LAUNCH_DATE":"2021-02-16","CENTER_NAME":"EARTH","MEAN_MOTION":"15.06397572","SEMIMAJOR_AXIS":"6925.356","FILE":"3125337","CLASSIFICATION_TYPE":"U","EPOCH":"2021-09-24T00:00:02.000160","RCS_SIZE":"LARGE","MEAN_MOTION_DOT":"0.00006939","GP_ID":"185349304","OBJECT_ID":"2021-012AB","MEAN_MOTION_DDOT":"0.0000000000000","INCLINATION":"53.0459","OBJECT_TYPE":"PAYLOAD","REV_AT_EPOCH":"357","BSTAR":"0.00048430000000","EPHEMERIS_TYPE":"0","APOAPSIS":"550.427","RA_OF_ASC_NODE":"148.6233","MEAN_ANOMALY":"58.8433","PERIOD":"95.592","REF_FRAME":"TEME","NORAD_CAT_ID":"47645","COUNTRY_CODE":"US","ELEMENT_SET_NO":"999","DECAY_DATE":null},{"LAUNCH_DATE":"2021-02-16","PERIAPSIS":"545.794","CENTER_NAME":"EARTH","MEAN_MOTION":"15.06373400","SEMIMAJOR_AXIS":"6925.430","FILE":"3125337","EPOCH":"2021-09-24T00:00:02.000160","CLASSIFICATION_TYPE":"U","TLE_LINE1":"1 47646U 21012AC  21267.00002315  .00040990  00000-0  27567-2 0  9993","TIME_SYSTEM":"UTC","MEAN_ELEMENT_THEORY":"SGP4","TLE_LINE2":"2 47646  53.0539 113.5918 0002167  88.0860 299.0324 15.06373400  3571","OBJECT_NAME":"STARLINK-2028","ARG_OF_PERICENTER":"88.0860","SITE":"AFETR","ECCENTRICITY":"0.00021670","EPHEMERIS_TYPE":"0","BSTAR":"0.00275670000000","APOAPSIS":"548.796","RA_OF_ASC_NODE":"113.5918","MEAN_ANOMALY":"299.0324","PERIOD":"95.594","NORAD_CAT_ID":"47646","REF_FRAME":"TEME","DECAY_DATE":null,"ELEMENT_SET_NO":"999","COUNTRY_CODE":"US","MEAN_MOTION_DOT":"0.00040990","RCS_SIZE":"LARGE","GP_ID":"185350548","MEAN_MOTION_DDOT":"0.0000000000000","OBJECT_ID":"2021-012AC","INCLINATION":"53.0539","OBJECT_TYPE":"PAYLOAD","REV_AT_EPOCH":"357"},{"APOAPSIS":"548.695","EPHEMERIS_TYPE":"0","BSTAR":"-0.00304270000000","MEAN_ANOMALY":"176.3262","RA_OF_ASC_NODE":"178.5993","PERIOD":"95.592","ELEMENT_SET_NO":"999","DECAY_DATE":null,"COUNTRY_CODE":"US","NORAD_CAT_ID":"47647","REF_FRAME":"TEME","MEAN_MOTION_DOT":"-0.00045319","RCS_SIZE":"LARGE","MEAN_MOTION_DDOT":"0.0000000000000","OBJECT_ID":"2021-012AD","GP_ID":"185350804","OBJECT_TYPE":"PAYLOAD","INCLINATION":"53.0543","REV_AT_EPOCH":"365","CENTER_NAME":"EARTH","LAUNCH_DATE":"2021-02-16","PERIAPSIS":"545.723","SEMIMAJOR_AXIS":"6925.344","MEAN_MOTION":"15.06401396","EPOCH":"2021-09-24T00:00:02.000160","CLASSIFICATION_TYPE":"U","FILE":"3125337","TLE_LINE1":"1 47647U 21012AD  21267.00002315 -.00045319  00000-0 -30427-2 0  9995","TIME_SYSTEM":"UTC","MEAN_ELEMENT_THEORY":"SGP4","OBJECT_NAME":"STARLINK-2030","ARG_OF_PERICENTER":"68.1703","TLE_LINE2":"2 47647  53.0543 178.5993 0002146  68.1703 176.3262 15.06401396  3656","ECCENTRICITY":"0.00021460","SITE":"AFETR"},{"TLE_LINE2":"2 47648  53.0538 158.5934 0002229  70.3631 224.1169 15.06402278  3604","OBJECT_NAME":"STARLINK-2031","ARG_OF_PERICENTER":"70.3631","SITE":"AFETR","ECCENTRICITY":"0.00022290","TLE_LINE1":"1 47648U 21012AE  21267.00002315 -.00033449  00000-0 -22370-2 0  9995","MEAN_ELEMENT_THEORY":"SGP4","TIME_SYSTEM":"UTC","FILE":"3125337","EPOCH":"2021-09-24T00:00:02.000160","CLASSIFICATION_TYPE":"U","PERIAPSIS":"545.663","LAUNCH_DATE":"2021-02-16","CENTER_NAME":"EARTH","MEAN_MOTION":"15.06402278","SEMIMAJOR_AXIS":"6925.342","INCLINATION":"53.0538","OBJECT_TYPE":"PAYLOAD","REV_AT_EPOCH":"360","MEAN_MOTION_DOT":"-0.00033449","RCS_SIZE":"MEDIUM","GP_ID":"185349057","OBJECT_ID":"2021-012AE","MEAN_MOTION_DDOT":"0.0000000000000","PERIOD":"95.592","NORAD_CAT_ID":"47648","REF_FRAME":"TEME","ELEMENT_SET_NO":"999","DECAY_DATE":null,"COUNTRY_CODE":"US","EPHEMERIS_TYPE":"0","BSTAR":"-0.00223700000000","APOAPSIS":"548.750","RA_OF_ASC_NODE":"158.5934","MEAN_ANOMALY":"224.1169"},{"OBJECT_TYPE":"PAYLOAD","INCLINATION":"53.0551","REV_AT_EPOCH":"360","MEAN_MOTION_DOT":"0.00037561","RCS_SIZE":"LARGE","MEAN_MOTION_DDOT":"0.0000000000000","OBJECT_ID":"2021-012AF","GP_ID":"185349804","PERIOD":"95.596","ELEMENT_SET_NO":"999","DECAY_DATE":null,"COUNTRY_CODE":"US","NORAD_CAT_ID":"47649","REF_FRAME":"TEME","APOAPSIS":"548.662","EPHEMERIS_TYPE":"0","BSTAR":"0.00253100000000","MEAN_ANOMALY":"213.5835","RA_OF_ASC_NODE":"158.6030","ARG_OF_PERICENTER":"60.8777","OBJECT_NAME":"STARLINK-2032","TLE_LINE2":"2 47649  53.0551 158.6030 0001839  60.8777 213.5835 15.06343102  3601","ECCENTRICITY":"0.00018390","SITE":"AFETR","TLE_LINE1":"1 47649U 21012AF  21267.00002315  .00037561  00000-0  25310-2 0  9990","TIME_SYSTEM":"UTC","MEAN_ELEMENT_THEORY":"SGP4","EPOCH":"2021-09-24T00:00:02.000160","CLASSIFICATION_TYPE":"U","FILE":"3125337","CENTER_NAME":"EARTH","PERIAPSIS":"546.114","LAUNCH_DATE":"2021-02-16","SEMIMAJOR_AXIS":"6925.523","MEAN_MOTION":"15.06343102"}];
